stk.v.11.0
    
    # WrittenBy    STK_v11.4.0
    
    BEGIN Ephemeris
        NumberOfEphemerisPoints		 1213
        ScenarioEpoch		 6 Aug 2021 23:59:42.000000
        InterpolationMethod		 Lagrange
        InterpolationSamplesM1		 7
        CentralBody		 Earth
        CoordinateSystem		 Fixed
    
        EphemerisTimePosVel	
1.3991043270873418 916357.0071780486 -5539880.004923287 3014800.009910074 0.00943567218766691 -0.00684709672375552 0.014565903197026013
1.4109609528954876 916357.0072908708 -5539880.005005416 3014800.010083689 0.009634685465455317 -0.006982078340325446 0.014601940203738827
1.4224793503956314 916357.0074011857 -5539880.005086604 3014800.0102523356 0.009456661893513522 -0.007162474182529697 0.014754789442446606
1.4339156236232156 916357.007510499 -5539880.005168666 3014800.0104220915 0.00968069705860339 -0.007139759459370639 0.015082275911768472
1.4448742803014933 916357.0076172723 -5539880.005247444 3014800.0105881076 0.00984383540379909 -0.007240604407358931 0.015179288711766166
1.455889679456515 916357.0077256948 -5539880.00532774 3014800.0107550877 0.009850842621175908 -0.007301810489555391 0.015230122781137502
1.4681634899672704 916357.0078475906 -5539880.005417174 3014800.010943179 0.009933951260289547 -0.0073771922892411955 0.015357003637647935
1.4800302989659615 916357.0079653049 -5539880.005504964 3014800.0111250565 0.009925533699149483 -0.007418001684871615 0.01536707137087404
1.4932720124446677 916357.0080981632 -5539880.005602563 3014800.0113299056 0.010123970024584476 -0.007367551151224032 0.01548015785146311
1.506117696280617 916357.0082286586 -5539880.005697122 3014800.011530075 0.010246341176665782 -0.007472453489683751 0.015767357928092522
1.5196518703677857 916357.0083690351 -5539880.005798223 3014800.0117450035 0.010490579116431194 -0.007518681534997086 0.01597939849815711
1.5357347189620691 916357.0085399738 -5539880.005919607 3014800.012001574 0.01081767092724926 -0.007498975958100554 0.015960976657822597
1.5513409138807615 916357.0087114277 -5539880.006036829 3014800.01225105 0.011176943555138773 -0.007454294826856842 0.01611325274162209
1.565810443284263 916357.0088747944 -5539880.006144682 3014800.012486601 0.011423097530319106 -0.007464455007123378 0.016407874992170255
1.5798286286007677 916357.0090349646 -5539880.0062500825 3014800.0127184703 0.01153243727835855 -0.0075429324165253294 0.016739134819918587
1.5941163875827495 916357.0092007576 -5539880.006359245 3014800.0129582244 0.01167339631220472 -0.007715292559893151 0.016923961266195983
1.610089112296905 916357.0093882694 -5539880.006484224 3014800.013229712 0.011757900669178667 -0.007883868534330474 0.016961713476712215
1.628627563711552 916357.0096073755 -5539880.006631793 3014800.0135460678 0.01171748952840137 -0.008092965532508347 0.0171272561842012
1.6454105879573364 916357.0098038673 -5539880.006767314 3014800.0138355237 0.011626304189886645 -0.008080138834794063 0.017224676383509437
1.6616827584675948 916357.0099933806 -5539880.006899169 3014800.0141169755 0.01164918101878368 -0.008221238031451703 0.017352261884009897
1.680804158881734 916357.0102193974 -5539880.007057811 3014800.0144484956 0.012055444506185857 -0.00825954043420694 0.017425261932243925
1.6983078760337622 916357.0104318246 -5539880.007201978 3014800.0147550944 0.012173764101692202 -0.008147320236755035 0.01757230453214003
1.7147695493198856 916357.0106338536 -5539880.007336255 3014800.015047281 0.012280779762183957 -0.008225746509250747 0.01784727736218506
1.7299780350068215 916357.0108220517 -5539880.007461244 3014800.015320483 0.012469828904512804 -0.00823537748442789 0.018071518298912282
1.746905104970571 916357.0110334972 -5539880.007601811 3014800.015626538 0.012525390236749714 -0.00845789309677275 0.018008632407389195
1.765365422889286 916357.0112660074 -5539880.007759492 3014800.015961055 0.012712906065636336 -0.0085963519077101 0.01817611881173907
1.7799254802577031 916357.0114515682 -5539880.007886173 3014800.0162269245 0.012884517630447866 -0.008837212770735245 0.018473113729027255
1.7944855376261202 916357.0116413534 -5539880.008014973 3014800.0164975277 0.013119545360543355 -0.00888435925985367 0.018643196081104284
1.8098953761077838 916357.0118462859 -5539880.008153716 3014800.0167841925 0.01357926096015984 -0.00914342610715651 0.018585906838666108
1.8242367344764883 916357.0120404203 -5539880.008286069 3014800.017052498 0.013530581782955605 -0.009279106542697963 0.018845417824724073
1.8392011612116839 916357.0122443916 -5539880.008425056 3014800.017334875 0.013831554256355499 -0.009370752969863198 0.018824573240927612
1.8541655879468795 916357.0124518912 -5539880.008565572 3014800.0176180704 0.014085759673132461 -0.009453862846112937 0.01890779955238689
1.868610680772447 916357.0126560424 -5539880.008702692 3014800.017891221 0.014233045012407236 -0.00942162759645282 0.018939204505886934
1.8826153934481817 916357.0128550534 -5539880.008835774 3014800.01815733 0.014208414346655835 -0.009633049595142685 0.019104442741421004
1.8971507126932454 916357.0130641137 -5539880.0089766905 3014800.0184341925 0.01456900881946073 -0.00967614964346992 0.01886963122117107
1.9135012638791875 916357.0133041561 -5539880.009136431 3014800.0187450643 0.014938608912218557 -0.009867580911898792 0.019049023321972076
1.9285550181855529 916357.0135287769 -5539880.009285764 3014800.0190320686 0.014848819613710096 -0.009926632014187376 0.019066068556632013
1.947107626608841 916357.0138053972 -5539880.009471027 3014800.0193867134 0.014917743167574226 -0.010015546263105416 0.019134687578534423
1.964376930595461 916357.0140639114 -5539880.00964544 3014800.0197179387 0.01506356064261999 -0.010170622280636908 0.01939461328911898
1.9816314135264692 916357.0143242416 -5539880.009821585 3014800.0200526663 0.015220070425654845 -0.010350698980672713 0.019339011617888213
2.0012024638925907 916357.0146236588 -5539880.010024333 3014800.0204324066 0.015404476582153442 -0.010293557520845832 0.019595136201314513
2.021684008314758 916357.0149412669 -5539880.010235864 3014800.0208340785 0.015502422993694665 -0.010424172754031574 0.019733838364479648
2.040963455172519 916357.0152421829 -5539880.010435648 3014800.0212148814 0.01577166810611813 -0.010291290350611739 0.019964716306344683
2.0589490409730593 916357.0155271738 -5539880.0106204515 3014800.0215739715 0.015705924431944483 -0.010232079703898007 0.01988603155568007
2.0764669799263924 916357.0158020176 -5539880.010799203 3014800.0219238987 0.01570270139059243 -0.010182910910736025 0.02018168343284317
2.094774259640541 916357.0160902679 -5539880.010984826 3014800.022294308 0.015906468720579353 -0.010071538159979231 0.020004125658646132
2.1113941685629958 916357.0163548694 -5539880.011153345 3014800.022627769 0.016144228118418643 -0.010133698355135902 0.020025717296853877
2.1282544182267373 916357.0166294101 -5539880.0113254925 3014800.0229655323 0.016444744985182204 -0.010374582432984608 0.020229412502477194
2.1448557593422373 916357.016903766 -5539880.011499373 3014800.023301554 0.01648423451295985 -0.010607905510475503 0.020383750777700355
2.16053753733634 916357.0171634237 -5539880.011666102 3014800.023621314 0.016727500125850232 -0.010591111138797772 0.020443312738548925
2.1766990768397467 916357.0174336684 -5539880.011836794 3014800.0239544455 0.01676433960931674 -0.010418884620437786 0.02074853955955357
2.1915683628977165 916357.0176845439 -5539880.011993533 3014800.02426332 0.017057924338975967 -0.010702479835655894 0.02092333735176635
2.206461266445105 916357.0179392716 -5539880.012153906 3014800.0245742463 0.017191962697260962 -0.010857127428987827 0.02084104290440536
2.2229863127244904 916357.0182249644 -5539880.012333848 3014800.024920137 0.017290785270842084 -0.010807860509856422 0.02102274507173822
2.2398767902101184 916357.0185175847 -5539880.012517315 3014800.0252765464 0.017302302985814713 -0.011001676018692208 0.021266939825557645
2.259378663414751 916357.0188579462 -5539880.012732574 3014800.025694983 0.017563201171976028 -0.011116469895332819 0.021686421312784084
2.278242712428602 916357.0191918549 -5539880.012941281 3014800.0261056423 0.017718646399752323 -0.01102952837845782 0.02182614220992664
2.296524727487756 916357.0195192315 -5539880.013145731 3014800.026506807 0.018035959315635196 -0.01140489477187048 0.021992989157098894
2.314085543246269 916357.0198372864 -5539880.013345429 3014800.0268926667 0.018150590123579148 -0.011353141096079024 0.022060289785376185
2.332213771313092 916357.0201664441 -5539880.0135508645 3014800.027291465 0.01800370061890124 -0.0113238582220215 0.021805631527832516
2.3489364167353584 916357.0204698301 -5539880.013741441 3014800.0276587666 0.018305191753620803 -0.01134586564949563 0.022012717832986264
2.365737298492779 916357.0207789827 -5539880.013930878 3014800.028031946 0.018410317379611144 -0.01117149267518493 0.0225265206016607
2.382262950887567 916357.0210841038 -5539880.014117931 3014800.028405081 0.018410679626240538 -0.011498921567595424 0.02257601223447388
2.402222878013706 916357.0214530018 -5539880.014346453 3014800.0288559147 0.018383587591043884 -0.011256858321006017 0.022806769154791177
2.4214597185116853 916357.0218076012 -5539880.01456423 3014800.0292948126 0.018565403937988365 -0.011443437162891854 0.023108271493119056
2.4423736118100705 916357.0221999336 -5539880.0148067875 3014800.0297820154 0.019020988088261657 -0.011676061889446943 0.023513152425494167
2.4668965482214547 916357.022669217 -5539880.015095268 3014800.030359325 0.01912783015869165 -0.011907729929378526 0.02342350138598992
2.4925711560462687 916357.0231648833 -5539880.0154028395 3014800.0309615694 0.019208823911267364 -0.012091198556080821 0.023711087116019592
2.517822283504923 916357.0236479538 -5539880.01571312 3014800.0315645123 0.019032800458951456 -0.01237095448472475 0.023721294962891187
2.5426014276689632 916357.0241198613 -5539880.016023223 3014800.032157123 0.01918154840433467 -0.012518909189980843 0.02396149943268911
